{"type": "FeatureCollection", "features": [ {"type": "Feature", "properties": {"norad_id": 66929, "name": "STARLINK-36169", "group": "last-30-days", "lat": -24.84031127338156, "lon": -15.244425047331463, "alt_km": 350.66440916417105, "timestamp": "2025-12-21T18:54:57.225112+00:00", "meta": {"OBJECT_NAME": "STARLINK-36169", "OBJECT_ID": "2025-286E", "EPOCH": "2025-12-21T14:00:01.999872", "MEAN_MOTION": 15.74172453, "ECCENTRICITY": 9.804e-05, "INCLINATION": 53.1575, "RA_OF_ASC_NODE": 6.0821, "ARG_OF_PERICENTER": 74.6439, "MEAN_ANOMALY": 172.4722, "EPHEMERIS_TYPE": 0, "CLASSIFICATION_TYPE": "U", "NORAD_CAT_ID": 66929, "ELEMENT_SET_NO": 999, "REV_AT_EPOCH": 341, "BSTAR": -2.2753179e-05, "MEAN_MOTION_DOT": -3.957e-05, "MEAN_MOTION_DDOT": 0}, "tle": {"line1": "1 66929U 25286E   25355.58335648 -.00003957  00000+0 -22753-4 0  9995", "line2": "2 66929  53.1575   6.0821 0000980  74.6439 172.4722 15.74172453  3419"}}, "geometry": {"type": "Point", "coordinates": [-15.244425047331463, -24.84031127338156]}}, {"type": "Feature", "properties": {"norad_id": 66930, "name": "STARLINK-36206", "group": "last-30-days", "lat": -23.396332385431748, "lon": -13.86835115293608, "alt_km": 350.5836102293115, "timestamp": "2025-12-21T18:54:57.225122+00:00", "meta": {"OBJECT_NAME": "STARLINK-36206", "OBJECT_ID": "2025-286F", "EPOCH": "2025-12-21T14:00:01.999872", "MEAN_MOTION": 15.74191282, "ECCENTRICITY": 0.00010979, "INCLINATION": 53.1578, "RA_OF_ASC_NODE": 6.078, "ARG_OF_PERICENTER": 79.1418, "MEAN_ANOMALY": 169.8832, "EPHEMERIS_TYPE": 0, "CLASSIFICATION_TYPE": "U", "NORAD_CAT_ID": 66930, "ELEMENT_SET_NO": 999, "REV_AT_EPOCH": 341, "BSTAR": -0.00019902033, "MEAN_MOTION_DOT": -0.00029676, "MEAN_MOTION_DDOT": 0}, "tle": {"line1": "1 66930U 25286F   25355.58335648 -.00029676  00000+0 -19902-3 0  9994", "line2": "2 66930  53.1578   6.0780 0001097  79.1418 169.8832 15.74191282  3418"}}, "geometry": {"type": "Point", "coordinates": [-13.86835115293608, -23.396332385431748]}}, {"type": "Feature", "properties": {"norad_id": 66931, "name": "STARLINK-36130", "group": "last-30-days", "lat": -21.939901101530207, "lon": -12.522012875673738, "alt_km": 350.3981615334669, "timestamp": "2025-12-21T18:54:57.225132+00:00", "meta": {"OBJECT_NAME": "STARLINK-36130", "OBJECT_ID": "2025-286G", "EPOCH": "2025-12-21T14:00:01.999872", "MEAN_MOTION": 15.74191494, "ECCENTRICITY": 9.251e-05, "INCLINATION": 53.1574, "RA_OF_ASC_NODE": 6.074, "ARG_OF_PERICENTER": 78.2203, "MEAN_ANOMALY": 172.7208, "EPHEMERIS_TYPE": 0, "CLASSIFICATION_TYPE": "U", "NORAD_CAT_ID": 66931, "ELEMENT_SET_NO": 999, "REV_AT_EPOCH": 341, "BSTAR": -0.00019100593, "MEAN_MOTION_DOT": -0.0002851, "MEAN_MOTION_DDOT": 0}, "tle": {"line1": "1 66931U 25286G   25355.58335648 -.00028510  00000+0 -19101-3 0  9992", "line2": "2 66931  53.1574   6.0740 0000925  78.2203 172.7208 15.74191494  3417"}}, "geometry": {"type": "Point", "coordinates": [-12.522012875673738, -21.939901101530207]}}, {"type": "Feature", "properties": {"norad_id": 66932, "name": "STARLINK-36177", "group": "last-30-days", "lat": -20.47785824182781, "lon": -11.207512154506679, "alt_km": 350.3442487565717, "timestamp": "2025-12-21T18:54:57.225142+00:00", "meta": {"OBJECT_NAME": "STARLINK-36177", "OBJECT_ID": "2025-286H", "EPOCH": "2025-12-21T14:00:01.999872", "MEAN_MOTION": 15.74178975, "ECCENTRICITY": 9.713e-05, "INCLINATION": 53.1575, "RA_OF_ASC_NODE": 6.0699, "ARG_OF_PERICENTER": 84.8131, "MEAN_ANOMALY": 168.0454, "EPHEMERIS_TYPE": 0, "CLASSIFICATION_TYPE": "U", "NORAD_CAT_ID": 66932, "ELEMENT_SET_NO": 999, "REV_AT_EPOCH": 341, "BSTAR": -3.0452607e-05, "MEAN_MOTION_DOT": -5.084e-05, "MEAN_MOTION_DDOT": 0}, "tle": {"line1": "1 66932U 25286H   25355.58335648 -.00005084  00000+0 -30453-4 0  9998", "line2": "2 66932  53.1575   6.0699 0000971  84.8131 168.0454 15.74178975  3416"}}, "geometry": {"type": "Point", "coordinates": [-11.207512154506679, -20.47785824182781]}}, {"type": "Feature", "properties": {"norad_id": 66933, "name": "STARLINK-36157", "group": "last-30-days", "lat": -19.000741717694186, "lon": -9.913349637622167, "alt_km": 350.06397402026687, "timestamp": "2025-12-21T18:54:57.225151+00:00", "meta": {"OBJECT_NAME": "STARLINK-36157", "OBJECT_ID": "2025-286J", "EPOCH": "2025-12-21T14:00:01.999872", "MEAN_MOTION": 15.74177903, "ECCENTRICITY": 8.275e-05, "INCLINATION": 53.1575, "RA_OF_ASC_NODE": 6.0659, "ARG_OF_PERICENTER": 73.4974, "MEAN_ANOMALY": 181.2796, "EPHEMERIS_TYPE": 0, "CLASSIFICATION_TYPE": "U", "NORAD_CAT_ID": 66933, "ELEMENT_SET_NO": 999, "REV_AT_EPOCH": 341, "BSTAR": -5.2419594e-05, "MEAN_MOTION_DOT": -8.294e-05, "MEAN_MOTION_DDOT": 0}, "tle": {"line1": "1 66933U 25286J   25355.58335648 -.00008294  00000+0 -52420-4 0  9993", "line2": "2 66933  53.1575   6.0659 0000827  73.4974 181.2796 15.74177903  3418"}}, "geometry": {"type": "Point", "coordinates": [-9.913349637622167, -19.000741717694186]}}, {"type": "Feature", "properties": {"norad_id": 66934, "name": "STARLINK-36153", "group": "last-30-days", "lat": -17.517247782458167, "lon": -8.644285844102297, "alt_km": 350.0008922125853, "timestamp": "2025-12-21T18:54:57.225163+00:00", "meta": {"OBJECT_NAME": "STARLINK-36153", "OBJECT_ID": "2025-286K", "EPOCH": "2025-12-21T14:00:01.999872", "MEAN_MOTION": 15.74171969, "ECCENTRICITY": 7.036e-05, "INCLINATION": 53.1576, "RA_OF_ASC_NODE": 6.0618, "ARG_OF_PERICENTER": 86.0645, "MEAN_ANOMALY": 170.6274, "EPHEMERIS_TYPE": 0, "CLASSIFICATION_TYPE": "U", "NORAD_CAT_ID": 66934, "ELEMENT_SET_NO": 999, "REV_AT_EPOCH": 341, "BSTAR": 6.6171918e-05, "MEAN_MOTION_DOT": 9.066e-05, "MEAN_MOTION_DDOT": 0}, "tle": {"line1": "1 66934U 25286K   25355.58335648  .00009066  00000+0  66172-4 0  9999", "line2": "2 66934  53.1576   6.0618 0000703  86.0645 170.6274 15.74171969  3412"}}, "geometry": {"type": "Point", "coordinates": [-8.644285844102297, -17.517247782458167]}}, {"type": "Feature", "properties": {"norad_id": 66935, "name": "STARLINK-36127", "group": "last-30-days", "lat": -16.021931328693768, "lon": -7.392752627070576, "alt_km": 349.91546381489024, "timestamp": "2025-12-21T18:54:57.225175+00:00", "meta": {"OBJECT_NAME": "STARLINK-36127", "OBJECT_ID": "2025-286L", "EPOCH": "2025-12-21T14:00:01.999872", "MEAN_MOTION": 15.74186052, "ECCENTRICITY": 0.00011499, "INCLINATION": 53.1575, "RA_OF_ASC_NODE": 6.0578, "ARG_OF_PERICENTER": 84.7889, "MEAN_ANOMALY": 173.8225, "EPHEMERIS_TYPE": 0, "CLASSIFICATION_TYPE": "U", "NORAD_CAT_ID": 66935, "ELEMENT_SET_NO": 999, "REV_AT_EPOCH": 341, "BSTAR": -0.00017152301, "MEAN_MOTION_DOT": -0.00025669, "MEAN_MOTION_DDOT": 0}, "tle": {"line1": "1 66935U 25286L   25355.58335648 -.00025669  00000+0 -17152-3 0  9992", "line2": "2 66935  53.1575   6.0578 0001149  84.7889 173.8225 15.74186052  3417"}}, "geometry": {"type": "Point", "coordinates": [-7.392752627070576, -16.021931328693768]}}, {"type": "Feature", "properties": {"norad_id": 66936, "name": "STARLINK-36160", "group": "last-30-days", "lat": -14.522391691746199, "lon": -6.161941877012844, "alt_km": 349.7167513815357, "timestamp": "2025-12-21T18:54:57.225189+00:00", "meta": {"OBJECT_NAME": "STARLINK-36160", "OBJECT_ID": "2025-286M", "EPOCH": "2025-12-21T14:00:01.999872", "MEAN_MOTION": 15.7418013, "ECCENTRICITY": 0.00010567, "INCLINATION": 53.1574, "RA_OF_ASC_NODE": 6.0542, "ARG_OF_PERICENTER": 83.5079, "MEAN_ANOMALY": 177.0207, "EPHEMERIS_TYPE": 0, "CLASSIFICATION_TYPE": "U", "NORAD_CAT_ID": 66936, "ELEMENT_SET_NO": 999, "REV_AT_EPOCH": 341, "BSTAR": -8.0314724e-05, "MEAN_MOTION_DOT": -0.00012369, "MEAN_MOTION_DDOT": 0}, "tle": {"line1": "1 66936U 25286M   25355.58335648 -.00012369  00000+0 -80315-4 0  9998", "line2": "2 66936  53.1574   6.0542 0001056  83.5079 177.0207 15.74180130  3410"}}, "geometry": {"type": "Point", "coordinates": [-6.161941877012844, -14.522391691746199]}}, {"type": "Feature", "properties": {"norad_id": 66937, "name": "STARLINK-36165", "group": "last-30-days", "lat": -13.016982929809485, "lon": -4.948954442272022, "alt_km": 349.50398100490474, "timestamp": "2025-12-21T18:54:57.225198+00:00", "meta": {"OBJECT_NAME": "STARLINK-36165", "OBJECT_ID": "2025-286N", "EPOCH": "2025-12-21T14:00:01.999872", "MEAN_MOTION": 15.74206223, "ECCENTRICITY": 8.778e-05, "INCLINATION": 53.1572, "RA_OF_ASC_NODE": 6.0499, "ARG_OF_PERICENTER": 83.927, "MEAN_ANOMALY": 178.5022, "EPHEMERIS_TYPE": 0, "CLASSIFICATION_TYPE": "U", "NORAD_CAT_ID": 66937, "ELEMENT_SET_NO": 999, "REV_AT_EPOCH": 341, "BSTAR": -0.00039268903, "MEAN_MOTION_DOT": -0.00057787, "MEAN_MOTION_DDOT": 0}, "tle": {"line1": "1 66937U 25286N   25355.58335648 -.00057787  00000+0 -39269-3 0  9993", "line2": "2 66937  53.1572   6.0499 0000877  83.9270 178.5022 15.74206223  3410"}}, "geometry": {"type": "Point", "coordinates": [-4.948954442272022, -13.016982929809485]}}, {"type": "Feature", "properties": {"norad_id": 66938, "name": "STARLINK-36155", "group": "last-30-days", "lat": -11.498413528528665, "lon": -3.7446895272917273, "alt_km": 349.4437695618526, "timestamp": "2025-12-21T18:54:57.225208+00:00", "meta": {"OBJECT_NAME": "STARLINK-36155", "OBJECT_ID": "2025-286P", "EPOCH": "2025-12-21T14:00:01.999872", "MEAN_MOTION": 15.74179168, "ECCENTRICITY": 8.072e-05, "INCLINATION": 53.1572, "RA_OF_ASC_NODE": 6.0455, "ARG_OF_PERICENTER": 94.8484, "MEAN_ANOMALY": 169.5172, "EPHEMERIS_TYPE": 0, "CLASSIFICATION_TYPE": "U", "NORAD_CAT_ID": 66938, "ELEMENT_SET_NO": 999, "REV_AT_EPOCH": 341, "BSTAR": -8.3235363e-05, "MEAN_MOTION_DOT": -0.00012794, "MEAN_MOTION_DDOT": 0}, "tle": {"line1": "1 66938U 25286P   25355.58335648 -.00012794  00000+0 -83235-4 0  9996", "line2": "2 66938  53.1572   6.0455 0000807  94.8484 169.5172 15.74179168  3417"}}, "geometry": {"type": "Point", "coordinates": [-3.7446895272917273, -11.498413528528665]}}]}